STARLINK-11302 [DTC]    
1 61204U 24171E   24279.91667824 -.00268242  00000+0 -16829-2 0  9998
2 61204  53.1610 219.9371 0001193  99.8063 265.4779 15.76783901  3664
STARLINK-11277 [DTC]    
1 61205U 24171F   24280.16668981 -.00859914  00000+0 -56277-2 0  9996
2 61205  53.1618 218.5814 0000729 103.9200 296.1295 15.77424064  3683
STARLINK-11279 [DTC]    
1 61206U 24171G   24279.91667824 -.00916555  00000+0 -56268-2 0  9998
2 61206  53.1628 219.7770 0000932 126.2320 317.4358 15.78983960  3667
STARLINK-11091 [DTC]    
1 61207U 24171H   24280.16668981  .00012622  00000+0  81124-4 0  9994
2 61207  53.1603 218.6374 0000577  96.4122 276.3799 15.76692761  3635
STARLINK-11291 [DTC]    
1 61208U 24171J   24280.16668981 -.00895804  00000+0 -53558-2 0  9996
2 61208  53.1621 218.4814 0000758 110.5906 338.2341 15.79508554  3687
STARLINK-11304 [DTC]    
1 61209U 24171K   24279.91667824 -.00914520  00000+0 -51035-2 0  9998
2 61209  53.1624 219.6882 0000927 126.0489   0.6233 15.81045143  3666
STARLINK-11307 [DTC]    
1 61210U 24171L   24279.91667824 -.00912202  00000+0 -48542-2 0  9994
2 61210  53.1622 219.6494 0000879 127.3355  18.1025 15.82053864  3660
STARLINK-11298 [DTC]    
1 61211U 24171M   24280.16668981 -.00896873  00000+0 -46563-2 0  9995
2 61211  53.1617 218.3593 0000614  99.6662  48.2812 15.82539992  3681
STARLINK-11310 [DTC]    
1 61212U 24171N   24280.16668981 -.00899787  00000+0 -44463-2 0  9990
2 61212  53.1614 218.3272 0000756 119.0620  44.4311 15.83583633  3685
STARLINK-32386          
1 61213U 24171P   24280.16668981 -.01335489  00000+0 -15150-1 0  9996
2 61213  53.1598 219.1670 0001004  86.6829  26.8690 15.64775885  3680
STARLINK-32392          
1 61214U 24171Q   24279.91667824 -.01350013  00000+0 -14879-1 0  9990
2 61214  53.1603 220.3815 0001116  91.6453  56.2284 15.65525107  3661
STARLINK-32436          
1 61215U 24171R   24280.16668981 -.01336598  00000+0 -15164-1 0  9995
2 61215  53.1598 219.1629 0000937  86.4000  29.0688 15.64776778  3683
STARLINK-32425          
1 61216U 24171S   24280.16668981 -.01338628  00000+0 -15190-1 0  9991
2 61216  53.1599 219.1552 0000787  99.6463  19.6548 15.64778051  3677
STARLINK-32342          
1 61217U 24171T   24280.16668981 -.01337019  00000+0 -15169-1 0  9991
2 61217  53.1598 219.1510 0000947 103.5366  17.6809 15.64777305  3686
STARLINK-32423          
1 61218U 24171U   24280.16668981 -.01336830  00000+0 -15167-1 0  9990
2 61218  53.1598 219.1472 0000893 101.3727  21.7613 15.64777136  3682
STARLINK-32248          
1 61219U 24171V   24280.16668981 -.01338470  00000+0 -15188-1 0  9996
2 61219  53.1599 219.1430 0000795  99.0368  26.0139 15.64777949  3675
KINEIS-3C               
1 61220U 24172A   24280.23135512  .00014086  00000+0  19966-2 0  9996
2 61220  98.0177   6.6110 0000601  22.8672 337.2565 14.77124395  2256
KINEIS-3D               
1 61221U 24172B   24280.23063473  .00014214  00000+0  20113-2 0  9992
2 61221  98.0177   6.6123 0000581 338.8337  21.2848 14.77195038  2252
KINEIS-3E               
1 61222U 24172C   24280.22974140  .00014318  00000+0  20219-2 0  9996
2 61222  98.0177   6.6137 0000562 147.9836 212.1408 14.77279015  2251
KINEIS-3A               
1 61223U 24172D   24280.22682589  .00014104  00000+0  19787-2 0  9991
2 61223  98.0177   6.6176 0001527 249.3119 110.7927 14.77563030  2250
KINEIS-3B               
1 61224U 24172E   24279.88673949  .00016720  00000+0  23357-2 0  9996
2 61224  98.0177   6.2825 0002035 221.0276 139.0782 14.77703487  2192
2024-172G               
1 61226U 24172G   24280.23410513  .00012912  00000+0  13034-2 0  9995
2 61226  98.0141   6.9191 0056336   0.1142   0.0078 14.90016156  2223
2024-173A               
1 61227U 24173A   24280.22686831  .00049926  00000+0  19969-2 0  9992
2 61227  97.4067 352.9061 0010969 226.3307 133.7023 15.24866521  1838
2024-173B               
1 61228U 24173B   24280.15931028  .00055570  00000+0  21996-2 0  9991
2 61228  97.4034 352.8390 0012062 230.8858 129.1308 15.25174474  1828
2024-173C               
1 61229U 24173C   24280.22555156  .00047615  00000+0  18985-2 0  9999
2 61229  97.4041 352.9043 0011440 231.0793 128.9426 15.24979458  1836
2024-173D               
1 61230U 24173D   24280.17055185  .00056043  00000+0  22241-2 0  9997
2 61230  97.4051 352.8527 0011596 231.3241 189.9854 15.25090882  1825
2024-173E               
1 61231U 24173E   24280.17192196  .00006640  00000+0  27373-3 0  9992
2 61231  97.3980 352.8367 0012003 231.0751 185.6137 15.24343168  1762
